[{"OBJECT_NAME":"STARLINK-31896","OBJECT_ID":"2024-097S","EPOCH":"2026-03-09T22:18:07.007328","MEAN_MOTION":15.27570955,"ECCENTRICITY":0.00022971,"INCLINATION":43.0039,"RA_OF_ASC_NODE":272.9882,"ARG_OF_PERICENTER":270.2749,"MEAN_ANOMALY":89.7839,"EPHEMERIS_TYPE":0,"CLASSIFICATION_TYPE":"U","NORAD_CAT_ID":59851,"ELEMENT_SET_NO":999,"REV_AT_EPOCH":10195,"BSTAR":-2.0240417e-5,"MEAN_MOTION_DOT":-8.19e-6,"MEAN_MOTION_DDOT":0},{"OBJECT_NAME":"OBJECT D","OBJECT_ID":"2024-173D","EPOCH":"2026-03-09T23:30:29.956896","MEAN_MOTION":15.27005733,"ECCENTRICITY":0.00090093,"INCLINATION":97.3606,"RA_OF_ASC_NODE":149.3901,"ARG_OF_PERICENTER":241.6081,"MEAN_ANOMALY":118.425,"EPHEMERIS_TYPE":0,"CLASSIFICATION_TYPE":"U","NORAD_CAT_ID":61230,"ELEMENT_SET_NO":999,"REV_AT_EPOCH":8130,"BSTAR":0.00072064626,"MEAN_MOTION_DOT":0.00019078,"MEAN_MOTION_DDOT":0}]
